QIANFAN-65              
1 62795U 25016L   25329.47357481  .00000129  00000+0  18068-3 0  9990
2 62795  88.9749 104.8427 0014627  39.2848 320.9361 13.50978921 44913
QIANFAN-66              
1 62796U 25016M   25329.42828809  .00000125  00000+0  17411-3 0  9990
2 62796  88.9769 104.8142 0015621  34.7542 325.4626 13.50982958 44959
QIANFAN-67              
1 62797U 25016N   25329.43250716  .00000131  00000+0  18359-3 0  9997
2 62797  88.9759 104.8410 0015769  41.3124 318.9217 13.50975834 44925
QIANFAN-68              
1 62798U 25016P   25329.42423230  .00000127  00000+0  17760-3 0  9990
2 62798  88.9763 104.8864 0015779  39.6473 320.5829 13.50978160 44903
QIANFAN-69              
1 62799U 25016Q   25329.44076479  .00000126  00000+0  17612-3 0  9997
2 62799  88.9742 104.7579 0016559  40.3891 319.8487 13.50981130 44949
QIANFAN-70              
1 62800U 25016R   25329.45707003  .00000151  00000+0  21492-3 0  9994
2 62800  88.9762 104.8910 0015909  31.2295 328.9798 13.50971805 44909
QIANFAN-71              
1 62801U 25016S   25329.45300124  .00000137  00000+0  19306-3 0  9993
2 62801  88.9756 104.8720 0016568  43.7301 316.5159 13.50979104 44904
QIANFAN-72              
1 62802U 25016T   25329.46947796  .00000132  00000+0  18503-3 0  9990
2 62802  88.9747 104.8853 0019986  49.6943 310.5951 13.50979026 44891
